NORAD_CAT_ID,OBJECT_NAME,OBJECT_TYPE,EPOCH,MEAN_MOTION,ECCENTRICITY,INCLINATION,RA_OF_ASC_NODE,ARG_OF_PERICENTER,MEAN_ANOMALY,BSTAR,MEAN_MOTION_DOT,MEAN_MOTION_DDOT,TLE_LINE0,TLE_LINE1,TLE_LINE2,SEMIMAJOR_AXIS,PERIOD,APOGEE,PERIGEE,DECAYED
53004.0,STARLINK-4253,PAYLOAD,2023-03-25 05:40:35,15.08830906,0.0001378,53.2159,264.4648,68.9217,291.1923,-0.0010183,-0.00016453,0.0,0 STARLINK-4253,1 53004U 22076U   23084.23652419 -.00016453  00000-0 -10183-2 0  9994,2 53004  53.2159 264.4648 0001378  68.9217 291.1923 15.08830906 40208,6917.908,95.438,540.726,538.82,0.0
53004.0,STARLINK-4253,PAYLOAD,2023-03-25 18:23:42,15.08781311,6.2e-05,53.2156,262.0849,76.199,283.9071,-0.0013643,-0.00021899,0.0,0 STARLINK-4253,1 53004U 22076U   23084.76646506 -.00021899  00000-0 -13643-2 0  9996,2 53004  53.2156 262.0849 0000620  76.1990 283.9071 15.08781311 40286,6918.06,95.441,540.354,539.496,0.0
53004.0,STARLINK-4253,PAYLOAD,2023-03-26 11:52:58,15.08826173,8.14e-05,53.2161,258.8124,144.0761,216.0286,0.0017803,0.00028148,0.0,0 STARLINK-4253,1 53004U 22076U   23085.49512590  .00028148  00000-0  17803-2 0  9996,2 53004  53.2161 258.8124 0000814 144.0761 216.0286 15.08826173 40390,6917.923,95.438,540.351,539.225,0.0
53004.0,STARLINK-4253,PAYLOAD,2023-03-26 18:14:31,15.08864082,0.0001249,53.2155,257.6231,122.2204,237.8909,0.0021694,0.0003443,0.0,0 STARLINK-4253,1 53004U 22076U   23085.76008286  .00034430  00000-0  21694-2 0  9992,2 53004  53.2155 257.6231 0001249 122.2204 237.8909 15.08864082 40431,6917.807,95.436,540.536,538.808,0.0
53004.0,STARLINK-4253,PAYLOAD,2023-03-27 03:46:49,15.08866061,0.0002212,53.2162,255.8383,105.7731,254.3506,0.00016899,2.404e-05,0.0,0 STARLINK-4253,1 53004U 22076U   23086.15751931  .00002404  00000-0  16899-3 0  9996,2 53004  53.2162 255.8383 0002212 105.7731 254.3506 15.08866061 40491,6917.801,95.436,541.196,538.136,0.0
53004.0,STARLINK-4253,PAYLOAD,2023-03-27 11:43:44,15.08870348,0.0001551,53.2161,254.3528,106.2634,253.8529,0.001243,0.00019566,0.0,0 STARLINK-4253,1 53004U 22076U   23086.48871362  .00019566  00000-0  12430-2 0  9996,2 53004  53.2161 254.3528 0001551 106.2634 253.8529 15.08870348 40074,6917.788,95.436,540.726,538.58,0.0
53004.0,STARLINK-4253,PAYLOAD,2023-03-27 18:05:16,15.08875891,0.0001439,53.2163,253.1633,122.971,237.1421,0.00069289,0.00010767,0.0,0 STARLINK-4253,1 53004U 22076U   23086.75366642  .00010767  00000-0  69289-3 0  9995,2 53004  53.2163 253.1633 0001439 122.9710 237.1421 15.08875891 40114,6917.771,95.435,540.631,538.64,0.0
53004.0,STARLINK-4253,PAYLOAD,2023-03-28 03:37:35,15.08857425,0.0001011,53.2159,251.3784,121.0754,239.0338,3.5437e-05,2.76e-06,0.0,0 STARLINK-4253,1 53004U 22076U   23087.15110302  .00000276  00000-0  35437-4 0  9993,2 53004  53.2159 251.3784 0001011 121.0754 239.0338 15.08857425 40649,6917.827,95.436,540.392,538.993,0.0
53004.0,STARLINK-4253,PAYLOAD,2023-03-28 11:34:31,15.08846934,0.0001256,53.2161,249.8912,104.7579,255.3552,0.00026283,3.898e-05,0.0,0 STARLINK-4253,1 53004U 22076U   23087.48230416  .00003898  00000-0  26283-3 0  9999,2 53004  53.2161 249.8912 0001256 104.7579 255.3552 15.08846934 40227,6917.859,95.437,540.593,538.855,0.0
53004.0,STARLINK-4253,PAYLOAD,2023-03-28 17:56:03,15.08852148,9.97e-05,53.216,248.7026,108.6817,251.4284,0.00026387,3.916e-05,0.0,0 STARLINK-4253,1 53004U 22076U   23087.74726136  .00003916  00000-0  26387-3 0  9993,2 53004  53.2160 248.7026 0000997 108.6817 251.4284 15.08852148 40266,6917.843,95.437,540.398,539.019,0.0
53004.0,STARLINK-4253,PAYLOAD,2023-03-29 03:28:22,15.08853384,7.98e-05,53.2156,246.9179,86.4053,273.703,0.00058571,9.049e-05,0.0,0 STARLINK-4253,1 53004U 22076U   23088.14470043  .00009049  00000-0  58571-3 0  9994,2 53004  53.2156 246.9179 0000798  86.4053 273.7030 15.08853384 40791,6917.839,95.437,540.257,539.152,0.0
53004.0,STARLINK-4253,PAYLOAD,2023-03-29 09:49:54,15.0884797,0.0001466,53.2157,245.7294,82.1396,277.9763,0.00056574,8.729e-05,0.0,0 STARLINK-4253,1 53004U 22076U   23088.40966374  .00008729  00000-0  56574-3 0  9995,2 53004  53.2157 245.7294 0001466  82.1396 277.9763 15.08847970 40831,6917.856,95.437,540.735,538.707,0.0
53004.0,STARLINK-4253,PAYLOAD,2023-03-29 17:46:50,15.08847629,0.0001166,53.2156,244.2407,81.6968,278.4156,0.00042652,6.508e-05,0.0,0 STARLINK-4253,1 53004U 22076U   23088.74086338  .00006508  00000-0  42652-3 0  9990,2 53004  53.2156 244.2407 0001166  81.6968 278.4156 15.08847629 40413,6917.857,95.437,540.529,538.915,0.0
53004.0,STARLINK-4253,PAYLOAD,2023-03-30 17:37:37,15.08869614,0.000177,53.2152,239.78,51.3101,308.8049,0.0014353,0.00022647,0.0,0 STARLINK-4253,1 53004U 22076U   23089.73446130  .00022647  00000-0  14353-2 0  9998,2 53004  53.2152 239.7800 0001770  51.3101 308.8049 15.08869614 41035,6917.79,95.436,540.879,538.43,0.0
53004.0,STARLINK-4253,PAYLOAD,2023-03-31 03:09:55,15.08854395,8.58e-05,53.2146,237.9983,265.5165,94.5729,-0.0009397,-0.00015217,0.0,0 STARLINK-4253,1 53004U 22076U   23090.13188825 -.00015217  00000-0 -93970-3 0  9998,2 53004  53.2146 237.9983 0000858 265.5165  94.5729 15.08854395 41095,6917.836,95.437,540.295,539.108,0.0
53004.0,STARLINK-4253,PAYLOAD,2023-03-31 14:17:37,15.08855632,9.54e-05,53.2142,235.915,77.6979,282.412,0.0019377,0.00030698,0.0,0 STARLINK-4253,1 53004U 22076U   23090.59557849  .00030698  00000-0  19377-2 0  9990,2 53004  53.2142 235.9150 0000954  77.6979 282.4120 15.08855632 41163,6917.833,95.437,540.358,539.038,0.0
53004.0,STARLINK-4253,PAYLOAD,2023-04-01 12:33:02,15.08848846,9.93e-05,53.2161,231.7511,71.3457,288.7643,0.001901,0.00030103,0.0,0 STARLINK-4253,1 53004U 22076U   23091.52295035  .00030103  00000-0  19010-2 0  9995,2 53004  53.2161 231.7511 0000993  71.3457 288.7643 15.08848846 40835,6917.853,95.437,540.405,539.031,0.0
53004.0,STARLINK-4253,PAYLOAD,2023-04-01 15:43:49,15.08829412,0.0001137,53.215,231.1558,96.0879,264.0243,0.0017239,0.00027246,0.0,0 STARLINK-4253,1 53004U 22076U   23091.65543074  .00027246  00000-0  17239-2 0  9993,2 53004  53.2150 231.1558 0001137  96.0879 264.0243 15.08829412 41327,6917.913,95.438,540.564,538.991,0.0
53004.0,STARLINK-4253,PAYLOAD,2023-04-02 13:59:13,15.08838937,0.0001258,53.2161,226.9948,93.7128,266.4008,0.00049457,7.592e-05,0.0,0 STARLINK-4253,1 53004U 22076U   23092.58279597  .00007592  00000-0  49457-3 0  9992,2 53004  53.2161 226.9948 0001258  93.7128 266.4008 15.08838937 41461,6917.884,95.438,540.619,538.878,0.0
53004.0,STARLINK-4253,PAYLOAD,2023-04-02 18:45:22,15.08846355,0.0001254,53.2151,226.0998,99.1738,260.9396,0.00061163,9.461e-05,0.0,0 STARLINK-4253,1 53004U 22076U   23092.78151357  .00009461  00000-0  61163-3 0  9992,2 53004  53.2151 226.0998 0001254  99.1738 260.9396 15.08846355 41023,6917.861,95.437,540.593,538.858,0.0
53004.0,STARLINK-4253,PAYLOAD,2023-04-03 12:14:37,15.08840717,0.0001363,53.2149,222.8275,96.8713,263.2434,0.00027655,4.116e-05,0.0,0 STARLINK-4253,1 53004U 22076U   23093.51015564  .00004116  00000-0  27655-3 0  9993,2 53004  53.2149 222.8275 0001363  96.8713 263.2434 15.08840717 41609,6917.878,95.438,540.686,538.8,0.0
53004.0,STARLINK-4253,PAYLOAD,2023-04-03 18:36:09,15.08851722,0.0001367,53.2161,221.6408,88.1726,271.9423,0.00040113,6.104e-05,0.0,0 STARLINK-4253,1 53004U 22076U   23093.77511159  .00006104  00000-0  40113-3 0  9995,2 53004  53.2161 221.6408 0001367  88.1726 271.9423 15.08851722 41174,6917.845,95.437,540.655,538.764,0.0
53004.0,STARLINK-4253,PAYLOAD,2023-04-04 15:16:09,15.08860399,0.0001195,53.2141,217.7746,68.1182,291.9937,0.00042265,6.449e-05,0.0,0 STARLINK-4253,1 53004U 22076U   23094.63622451  .00006449  00000-0  42265-3 0  9991,2 53004  53.2141 217.7746 0001195  68.1182 291.9937 15.08860399 41303,6917.818,95.436,540.51,538.856,0.0
53004.0,STARLINK-4253,PAYLOAD,2023-04-05 13:31:34,15.08840818,0.0001172,53.2153,213.6124,65.7035,294.4079,0.00021275,3.1e-05,0.0,0 STARLINK-4253,1 53004U 22076U   23095.56359211  .00003100  00000-0  21275-3 0  9994,2 53004  53.2153 213.6124 0001172  65.7035 294.4079 15.08840818 41440,6917.878,95.438,540.554,538.932,0.0
53004.0,STARLINK-4253,PAYLOAD,2023-04-06 08:36:12,15.08837972,0.0001155,53.216,210.0446,68.7043,291.4072,0.00020432,2.965e-05,0.0,0 STARLINK-4253,1 53004U 22076U   23096.35847537  .00002965  00000-0  20432-3 0  9997,2 53004  53.2160 210.0446 0001155  68.7043 291.4072 15.08837972 42032,6917.887,95.438,540.551,538.953,0.0
53004.0,STARLINK-4253,PAYLOAD,2023-04-06 11:46:58,15.08844351,0.0001395,53.2175,209.4499,101.5148,258.6001,0.00022177,3.244e-05,0.0,0 STARLINK-4253,1 53004U 22076U   23096.49095196  .00003244  00000-0  22177-3 0  9997,2 53004  53.2175 209.4499 0001395 101.5148 258.6001 15.08844351 41581,6917.867,95.437,540.697,538.767,0.0
53004.0,STARLINK-4253,PAYLOAD,2023-04-07 11:37:45,15.08843115,0.0001671,53.2187,204.9908,106.6046,253.513,0.00018862,2.715e-05,0.0,0 STARLINK-4253,1 53004U 22076U   23097.48455351  .00002715  00000-0  18862-3 0  9998,2 53004  53.2187 204.9908 0001671 106.6046 253.5130 15.08843115 42203,6917.871,95.437,540.892,538.58,0.0
53004.0,STARLINK-4253,PAYLOAD,2023-04-08 13:03:55,15.08842697,0.0001557,53.2171,200.2326,91.5535,268.5635,0.00010703,1.416e-05,0.0,0 STARLINK-4253,1 53004U 22076U   23098.54439493  .00001416  00000-0  10703-3 0  9998,2 53004  53.2171 200.2326 0001557  91.5535 268.5635 15.08842697 42364,6917.872,95.437,540.814,538.66,0.0
53004.0,STARLINK-4253,PAYLOAD,2023-04-09 09:43:56,15.08831901,0.0001314,53.2153,196.363,114.5713,245.5416,8.6508e-05,1.089e-05,0.0,0 STARLINK-4253,1 53004U 22076U   23099.40551951  .00001089  00000-0  86508-4 0  9991,2 53004  53.2153 196.3630 0001314 114.5713 245.5416 15.08831901 42494,6917.905,95.438,540.679,538.861,0.0
53004.0,STARLINK-4253,PAYLOAD,2023-04-09 11:19:20,15.08831531,0.0001441,53.216,196.0685,99.8046,260.3109,-1.848e-05,-5.82e-06,0.0,0 STARLINK-4253,1 53004U 22076U   23099.47176124 -.00000582  00000-0 -18480-4 0  9996,2 53004  53.2160 196.0685 0001441  99.8046 260.3109 15.08831531 42037,6917.906,95.438,540.768,538.774,0.0
